[{"OBJECT_NAME":"STARLINK-1777","OBJECT_ID":"2020-088A","EPOCH":"2026-03-09T21:53:32.612064","MEAN_MOTION":15.51775072,"ECCENTRICITY":0.00015349,"INCLINATION":53.0539,"RA_OF_ASC_NODE":282.6272,"ARG_OF_PERICENTER":245.3461,"MEAN_ANOMALY":114.7388,"EPHEMERIS_TYPE":0,"CLASSIFICATION_TYPE":"U","NORAD_CAT_ID":47122,"ELEMENT_SET_NO":999,"REV_AT_EPOCH":29212,"BSTAR":0.0018721438,"MEAN_MOTION_DOT":0.00114877,"MEAN_MOTION_DDOT":0},{"OBJECT_NAME":"STARLINK-36642","OBJECT_ID":"2026-022M","EPOCH":"2026-03-09T22:00:01.999584","MEAN_MOTION":15.67111512,"ECCENTRICITY":0.00014785,"INCLINATION":97.2846,"RA_OF_ASC_NODE":102.9081,"ARG_OF_PERICENTER":66.7517,"MEAN_ANOMALY":337.0736,"EPHEMERIS_TYPE":0,"CLASSIFICATION_TYPE":"U","NORAD_CAT_ID":67659,"ELEMENT_SET_NO":999,"REV_AT_EPOCH":608,"BSTAR":-0.020317165,"MEAN_MOTION_DOT":-0.01917754,"MEAN_MOTION_DDOT":0}]
